[{"name":"GPS BIIF-10 (PRN 08)","l1":"1 40730U 15033A   26183.67757596 -.00000006  00000+0  00000+0 0  9993","l2":"2 40730  53.9706 266.4476 0115202  30.2635 330.4701  2.00555543 80309","cat":"navigation"},{"name":"GPS BIIF-11 (PRN 10)","l1":"1 41019U 15062A   26180.74153782 -.00000066  00000+0  00000+0 0  9994","l2":"2 41019  56.9678  30.3277 0112244 230.9838 128.0695  2.00567192 78083","cat":"navigation"},{"name":"GPS BIIF-12 (PRN 32)","l1":"1 41328U 16007A   26180.83338311 -.00000037  00000+0  00000+0 0  9998","l2":"2 41328  55.5312  88.9584 0095643 247.1499 111.8568  2.00551193 76094","cat":"navigation"},{"name":"GSAT0206 (GALILEO 10)","l1":"1 40890U 15045B   26182.53529488  .00000074  00000+0  00000+0 0  9998","l2":"2 40890  54.9416 221.2080 0001620 340.3144  19.7690  1.70473858 67283","cat":"navigation"},{"name":"GSAT0209 (GALILEO 12)","l1":"1 41174U 15079A   26179.18392164 -.00000033  00000+0  00000+0 0  9993","l2":"2 41174  55.8335 100.9603 0005085 347.1897  12.7761  1.70473803 64966","cat":"navigation"},{"name":"GSAT0208 (GALILEO 11)","l1":"1 41175U 15079B   26182.92381336 -.00000013  00000+0  00000+0 0  9997","l2":"2 41175  55.8336 100.8547 0004614 354.4374   5.5610  1.70473736 65444","cat":"navigation"},{"name":"GSAT0211 (GALILEO 14)","l1":"1 41549U 16030A   26178.94152421  .00000069  00000+0  00000+0 0  9998","l2":"2 41549  55.0927 221.3989 0003116 320.4926  39.5816  1.70474008 62858","cat":"navigation"},{"name":"GSAT0210 (GALILEO 13)","l1":"1 41550U 16030B   26183.30484962  .00000074  00000+0  00000+0 0  9990","l2":"2 41550  55.0898 221.2768 0008314 256.8787 103.1145  1.70473959 62928","cat":"navigation"},{"name":"GSAT0207 (GALILEO 15)","l1":"1 41859U 16069A   26177.71738502 -.00000038  00000+0  00000+0 0  9995","l2":"2 41859  55.5042 100.8225 0005006 333.0982  26.8500  1.70473700 59562","cat":"navigation"},{"name":"GSAT0212 (GALILEO 16)","l1":"1 41860U 16069B   26179.33057380 -.00000033  00000+0  00000+0 0  9990","l2":"2 41860  55.5028 100.7730 0004434   6.1382 353.8467  1.70473934 59849","cat":"navigation"},{"name":"GSAT0213 (GALILEO 17)","l1":"1 41861U 16069C   26179.11118849 -.00000034  00000+0  00000+0 0  9996","l2":"2 41861  55.5047 100.7870 0004537 315.9585  43.9839  1.70474290 59707","cat":"navigation"},{"name":"GSAT0214 (GALILEO 18)","l1":"1 41862U 16069D   26182.19038912 -.00000017  00000+0  00000+0 0  9992","l2":"2 41862  55.5050 100.6945 0003556 328.0660  31.9108  1.70473880 59882","cat":"navigation"},{"name":"GSAT0215 (GALILEO 19)","l1":"1 43055U 17079A   26183.26668362  .00000074  00000+0  00000+0 0  9999","l2":"2 43055  55.0700 221.0915 0004952 269.1810  90.8482  1.70474379 53240","cat":"navigation"},{"name":"BEIDOU-3S IGSO-1S","l1":"1 40549U 15019A   26183.74702704 -.00000143  00000+0  00000+0 0  9996","l2":"2 40549  49.1658 295.2758 0039341 192.3032 152.1200  1.00248556 41226","cat":"geostationary"},{"name":"BEIDOU-3S IGSO-2S","l1":"1 40938U 15053A   26183.67263775 -.00000096  00000+0  00000+0 0  9995","l2":"2 40938  49.1969 258.5980 0065697 193.2584 165.2618  1.00256360 39505","cat":"geostationary"},{"name":"GSAT-15","l1":"1 41028U 15065A   26183.70805641 -.00000247  00000+0  00000+0 0  9995","l2":"2 41028   0.0419 250.8690 0004440 191.0709 187.1953  1.00270279 38957","cat":"geostationary"},{"name":"IRNSS-1E","l1":"1 41241U 16003A   26180.82733131 -.00000310  00000+0  00000+0 0  9990","l2":"2 41241  33.2608  59.5670 0019200 178.7998  89.1855  1.00272765 38208","cat":"geostationary"},{"name":"BEIDOU-2 IGSO-6","l1":"1 41434U 16021A   26177.11016981 -.00000145  00000+0  00000+0 0  9995","l2":"2 41434  60.2385  37.9495 0057558 231.0163 137.2672  1.00258926 37578","cat":"geostationary"},{"name":"IRNSS-1G","l1":"1 41469U 16027A   26183.76349383 -.00000326  00000+0  00000+0 0  9993","l2":"2 41469   5.2331  97.1152 0005813   5.9207 222.1520  1.00279640 37334","cat":"geostationary"},{"name":"BEIDOU-2 G7","l1":"1 41586U 16037A   26183.74707586 -.00000343  00000+0  00000+0 0  9994","l2":"2 41586   1.7568  69.4388 0006771   3.7556 227.0737  1.00269433  7045","cat":"geostationary"},{"name":"EUTELSAT 117 WEST B","l1":"1 41589U 16038B   26183.63071992  .00000000  00000+0  00000+0 0  9990","l2":"2 41589   0.0082 201.6637 0000328 106.1903  82.8636  1.00268475 36811","cat":"geostationary"},{"name":"SES-15","l1":"1 42709U 17026A   26183.69960315  .00000071  00000+0  00000+0 0  9993","l2":"2 42709   0.0224 333.2990 0000650 116.3241 313.8103  1.00268893  7586","cat":"geostationary"},{"name":"QZS-2 (MICHIBIKI-2)","l1":"1 42738U 17028A   26183.47001066 -.00000108  00000+0  00000+0 0  9994","l2":"2 42738  39.4044 242.9285 0758655 269.4438  79.5216  1.00279990  7772","cat":"geostationary"},{"name":"QZS-3 (MICHIBIKI-3)","l1":"1 42917U 17048A   26183.75028252 -.00000337  00000+0  00000+0 0  9996","l2":"2 42917   0.0764 134.6500 0002230 325.2873 217.9699  1.00268824 32412","cat":"geostationary"},{"name":"QZS-4 (MICHIBIKI-4)","l1":"1 42965U 17062A   26183.76741337 -.00000316  00000+0  00000+0 0  9999","l2":"2 42965  40.1001 343.2884 0746818 268.3349  83.7779  1.00294869 31964","cat":"geostationary"},{"name":"BEIDOU-3S M2S","l1":"1 40748U 15037A   26182.28405675 -.00000066  00000+0  00000+0 0  9996","l2":"2 40748  54.8572 301.5610 0009020 257.9335 101.9782  1.86232501 74385","cat":"navigation"},{"name":"BEIDOU-3S M1S","l1":"1 40749U 15037B   26182.48973792 -.00000065  00000+0  00000+0 0  9998","l2":"2 40749  54.8538 301.5415 0003101  62.8434 297.2018  1.86255000 74399","cat":"navigation"},{"name":"COSMOS 2514 [GLONASS-M]","l1":"1 41330U 16008A   26182.83223629 -.00000051  00000+0  00000+0 0  9995","l2":"2 41330  65.0121 312.5042 0011840 199.6375 160.3188  2.13102696 80936","cat":"navigation"},{"name":"COSMOS 2522 [GLONASS-M]","l1":"1 42939U 17055A   26183.60846124  .00000082  00000+0  00000+0 0  9994","l2":"2 42939  64.0799 191.3594 0010918 240.8035 119.1169  2.13102034 68308","cat":"navigation"},{"name":"BEIDOU-3 M1","l1":"1 43001U 17069A   26182.63087514 -.00000040  00000+0  00000+0 0  9997","l2":"2 43001  56.7042  62.6089 0009780 326.4451  33.5606  1.86231668 58876","cat":"navigation"},{"name":"BEIDOU-3 M2","l1":"1 43002U 17069B   26182.56966369 -.00000040  00000+0  00000+0 0  9994","l2":"2 43002  56.7035  62.6467 0008730 353.7874   6.2692  1.86230997 58860","cat":"navigation"}]